{
    "links": {
        "self": "http://www.neowsapp.com/rest/v1/neo/3836196?api_key=iIulBulltgU6a56xZRHN4H3l9WmuAYTsLGpBGhQ2"
    },
    "id": "3836196",
    "neo_reference_id": "3836196",
    "name": "(2018 VR7)",
    "designation": "2018 VR7",
    "nasa_jpl_url": "http://ssd.jpl.nasa.gov/sbdb.cgi?sstr=3836196",
    "absolute_magnitude_h": 26.8,
    "estimated_diameter": {
        "kilometers": {
            "estimated_diameter_min": 0.0116025908,
            "estimated_diameter_max": 0.0259441818
        },
        "meters": {
            "estimated_diameter_min": 11.6025908209,
            "estimated_diameter_max": 25.9441817907
        },
        "miles": {
            "estimated_diameter_min": 0.0072095135,
            "estimated_diameter_max": 0.0161209622
        },
        "feet": {
            "estimated_diameter_min": 38.066244069,
            "estimated_diameter_max": 85.1187093863
        }
    },
    "is_potentially_hazardous_asteroid": false,
    "close_approach_data": [
        {
            "close_approach_date": "1954-09-13",
            "close_approach_date_full": "1954-Sep-13 20:59",
            "epoch_date_close_approach": -482814060000,
            "relative_velocity": {
                "kilometers_per_second": "13.7546890281",
                "kilometers_per_hour": "49516.8805013342",
                "miles_per_hour": "30767.8638870652"
            },
            "miss_distance": {
                "astronomical": "0.2532727253",
                "lunar": "98.5230901417",
                "kilometers": "37889060.233975111",
                "miles": "23543170.3180780918"
            },
            "orbiting_body": "Earth"
        },
        {
            "close_approach_date": "2018-11-01",
            "close_approach_date_full": "2018-Nov-01 08:02",
            "epoch_date_close_approach": 1541059320000,
            "relative_velocity": {
                "kilometers_per_second": "6.9590896903",
                "kilometers_per_hour": "25052.7228850785",
                "miles_per_hour": "15566.7877282312"
            },
            "miss_distance": {
                "astronomical": "0.0602404693",
                "lunar": "23.4335425577",
                "kilometers": "9011845.895080391",
                "miles": "5599701.3775997558"
            },
            "orbiting_body": "Earth"
        }
    ],
    "orbital_data": {
        "orbit_id": "1",
        "orbit_determination_date": "2018-11-12 09:42:07",
        "first_observation_date": "2018-11-10",
        "last_observation_date": "2018-11-12",
        "data_arc_in_days": 2,
        "observations_used": 19,
        "orbit_uncertainty": "8",
        "minimum_orbit_intersection": ".0547067",
        "jupiter_tisserand_invariant": "3.272",
        "epoch_osculation": "2458433.5",
        "eccentricity": ".56695467821364",
        "semi_major_axis": "2.420488963682426",
        "inclination": "3.106840698666455",
        "ascending_node_longitude": "222.4919207050455",
        "orbital_period": "1375.476221905647",
        "perihelion_distance": "1.048181422158189",
        "perihelion_argument": "169.9717686733468",
        "aphelion_distance": "3.792796505206662",
        "perihelion_time": "2458419.417166039642",
        "mean_anomaly": "3.685865407912994",
        "mean_motion": ".2617275342653614",
        "equinox": "J2000",
        "orbit_class": {
            "orbit_class_type": "AMO",
            "orbit_class_description": "Near-Earth asteroid orbits similar to that of 1221 Amor",
            "orbit_class_range": "1.017 AU < q (perihelion) < 1.3 AU"
        }
    },
    "is_sentry_object": false
}